OBJECT_NAME,OBJECT_ID,EPOCH,MEAN_MOTION,ECCENTRICITY,INCLINATION,RA_OF_ASC_NODE,ARG_OF_PERICENTER,MEAN_ANOMALY,EPHEMERIS_TYPE,CLASSIFICATION_TYPE,NORAD_CAT_ID,ELEMENT_SET_NO,REV_AT_EPOCH,BSTAR,MEAN_MOTION_DOT,MEAN_MOTION_DDOT
ONEWEB-0068,2020-020Y,2026-07-15T22:00:48.182112,13.11418194,.00016303,87.8892,15.3443,92.0428,268.0887,0,U,45446,999,30636,-.11297889E-2,-.388E-5,0
ONEWEB-0046,2020-020Z,2026-07-15T21:48:46.444896,13.11417596,.00016458,87.8884,15.3497,84.3302,275.8014,0,U,45447,999,30637,-.14383635E-2,-.497E-5,0
ONEWEB-0063,2020-020AA,2026-07-15T22:30:30.603744,13.11417768,.00019196,87.8894,15.3453,81.3485,278.7861,0,U,45448,999,30646,.11329078E-2,.414E-5,0
ONEWEB-0019,2020-020AB,2026-07-15T21:36:23.099904,13.11414651,.00019858,87.8885,15.3376,96.4355,263.6999,0,U,45449,999,30630,-.8556547E-3,-.291E-5,0
ONEWEB-0094,2020-020AC,2026-07-15T21:45:49.575456,13.17648955,.0001807,87.9155,0.1382,100.4688,259.6647,0,U,45450,999,31009,.76138319E-4,.42E-6,0
ONEWEB-0087,2020-020AD,2026-07-15T20:54:53.629920,13.11416640,.00015791,87.8901,15.3350,94.9895,265.1414,0,U,45451,999,30634,.14448708E-2,.525E-5,0
ONEWEB-0082,2020-020AE,2026-07-15T22:39:52.723872,13.11417377,.0001363,87.8893,15.3349,88.0323,272.0961,0,U,45452,999,30644,.15205055E-2,.552E-5,0
ONEWEB-0050,2020-020AF,2026-07-15T19:28:17.241024,14.90473282,.00023274,88.9279,229.3224,172.2444,187.8822,0,U,45453,999,34464,.90708512E-4,.906E-5,0
ONEWEB-0034,2020-020AG,2026-07-15T21:44:07.965600,13.11415687,.00018194,87.8893,15.3518,90.0927,270.0410,0,U,45454,999,30635,-.14816775E-2,-.512E-5,0
ONEWEB-0060,2020-020AH,2026-07-15T22:29:05.574048,13.11417967,.00012299,87.8887,15.3413,121.6991,238.4257,0,U,45455,999,30631,.95206023E-3,.35E-5,0
ONEWEB-0086,2020-020AJ,2026-07-15T21:58:21.150912,13.11418617,.00018768,87.8894,15.3433,114.7512,245.3811,0,U,45456,999,30637,-.12291037E-2,-.423E-5,0
ONEWEB-0088,2020-020AK,2026-07-15T21:26:48.516576,13.11414741,.0001716,87.8899,15.3224,78.5217,281.6103,0,U,45457,999,30630,-.58456591E-3,-.194E-5,0
ONEWEB-0102,2020-100A,2026-07-15T21:00:32.801760,13.12442367,.00020386,87.8963,344.9694,103.0815,257.0541,0,U,47258,999,26849,.73899065E-3,.279E-5,0
ONEWEB-0109,2020-100B,2026-07-15T23:02:31.238592,13.12441829,.00020239,87.8972,344.9388,97.5678,262.5681,0,U,47259,999,26833,-.3326102E-3,-.107E-5,0
ONEWEB-0110,2020-100C,2026-07-15T21:51:46.774656,13.12444500,.00018137,87.8973,344.9326,105.4889,254.6440,0,U,47260,999,26849,-.71265603E-3,-.244E-5,0
ONEWEB-0111,2020-100D,2026-07-15T22:35:41.769888,13.12443089,.00017764,87.8972,344.9452,98.0959,262.0371,0,U,47261,999,26833,.10340421E-2,.385E-5,0
ONEWEB-0114,2020-100E,2026-07-15T21:29:48.612192,13.12442303,.00020585,87.8975,344.9527,95.8937,264.2426,0,U,47262,999,26828,-.11017829E-2,-.384E-5,0
ONEWEB-0117,2020-100F,2026-07-15T23:07:23.870208,13.12442044,.00018538,87.8971,344.9290,97.0634,263.0706,0,U,47263,999,26830,-.29971191E-3,-.95E-6,0
ONEWEB-0118,2020-100G,2026-07-15T22:06:24.960672,13.12443407,.00019829,87.8970,344.9401,86.7263,273.4092,0,U,47264,999,26849,.49460756E-4,.31E-6,0
ONEWEB-0119,2020-100H,2026-07-15T20:53:14.068608,13.12441812,.00018521,87.8961,344.9644,95.0185,265.1155,0,U,47265,999,26846,.94024827E-3,.351E-5,0
ONEWEB-0120,2020-100J,2026-07-15T21:27:34.341408,13.12441732,.00020356,87.8961,344.9611,95.7423,264.3938,0,U,47266,999,26849,-.97749935E-3,-.339E-5,0
ONEWEB-0121,2020-100K,2026-07-15T21:10:17.912064,13.12441366,.00015676,87.8973,344.9523,100.8350,259.2955,0,U,47267,999,26840,-.10331032E-3,-.24E-6,0
ONEWEB-0122,2020-100L,2026-07-15T21:01:45.846912,13.12440253,.00019857,87.8974,344.9585,98.4846,261.6507,0,U,47268,999,26831,.57241397E-3,.219E-5,0
ONEWEB-0123,2020-100M,2026-07-15T20:55:39.957600,13.12441925,.00018583,87.8962,344.9630,92.9220,267.2122,0,U,47269,999,26845,.89867758E-3,.336E-5,0
ONEWEB-0124,2020-100N,2026-07-15T22:30:48.769344,13.12443011,.00017611,87.8960,344.9525,97.3304,262.8025,0,U,47270,999,26834,.1305037E-2,.482E-5,0
ONEWEB-0125,2020-100P,2026-07-15T21:59:05.175168,13.12443823,.0001604,87.8971,344.9437,90.4523,269.6789,0,U,47271,999,26840,-.33055075E-3,-.106E-5,0
ONEWEB-0126,2020-100Q,2026-07-15T22:28:35.343552,13.12442854,.0001982,87.8966,344.9536,94.4908,265.6447,0,U,47272,999,26847,.11202549E-2,.416E-5,0
ONEWEB-0127,2020-100R,2026-07-15T21:39:34.094880,13.12442820,.0001999,87.8961,344.9576,96.4280,263.7076,0,U,47273,999,26849,-.12154745E-2,-.425E-5,0
ONEWEB-0128,2020-100S,2026-07-15T22:11:17.503296,13.12444195,.00018092,87.8960,344.9671,106.2957,253.8370,0,U,47274,999,26851,.37494154E-3,.148E-5,0
ONEWEB-0129,2020-100T,2026-07-15T21:42:00.644832,13.12442584,.00029747,87.8971,344.9476,92.8317,267.3152,0,U,47275,999,26844,-.12064571E-2,-.421E-5,0
