ONEWEB-0068             
1 45446U 20020Y   26196.91722433 -.00000388  00000+0 -11298-2 0  9995
2 45446  87.8892  15.3443 0001630  92.0428 268.0887 13.11418194306362
ONEWEB-0046             
1 45447U 20020Z   26196.90887089 -.00000497  00000+0 -14384-2 0  9994
2 45447  87.8884  15.3497 0001645  84.3302 275.8014 13.11417596306378
ONEWEB-0063             
1 45448U 20020AA  26196.93785421  .00000414  00000+0  11329-2 0  9998
2 45448  87.8894  15.3453 0001919  81.3485 278.7861 13.11417768306468
ONEWEB-0019             
1 45449U 20020AB  26196.90026736 -.00000291  00000+0 -85565-3 0  9992
2 45449  87.8885  15.3376 0001985  96.4355 263.6999 13.11414651306305
ONEWEB-0094             
1 45450U 20020AC  26196.90682379  .00000042  00000+0  76138-4 0  9994
2 45450  87.9155   0.1382 0001807 100.4688 259.6647 13.17648955310093
ONEWEB-0087             
1 45451U 20020AD  26196.87145405  .00000525  00000+0  14449-2 0  9996
2 45451  87.8901  15.3350 0001579  94.9895 265.1414 13.11416640306343
ONEWEB-0082             
1 45452U 20020AE  26196.94436023  .00000552  00000+0  15205-2 0  9995
2 45452  87.8893  15.3349 0001363  88.0323 272.0961 13.11417377306446
ONEWEB-0050             
1 45453U 20020AF  26196.81131066  .00000906  00000+0  90709-4 0  9998
2 45453  88.9279 229.3224 0002327 172.2444 187.8822 14.90473282344645
ONEWEB-0034             
1 45454U 20020AG  26196.90564775 -.00000512  00000+0 -14817-2 0  9995
2 45454  87.8893  15.3518 0001819  90.0927 270.0410 13.11415687306354
ONEWEB-0060             
1 45455U 20020AH  26196.93687007  .00000350  00000+0  95206-3 0  9993
2 45455  87.8887  15.3413 0001229 121.6991 238.4257 13.11417967306315
ONEWEB-0086             
1 45456U 20020AJ  26196.91552258 -.00000423  00000+0 -12291-2 0  9996
2 45456  87.8894  15.3433 0001876 114.7512 245.3811 13.11418617306378
ONEWEB-0088             
1 45457U 20020AK  26196.89361709 -.00000194  00000+0 -58457-3 0  9993
2 45457  87.8899  15.3224 0001716  78.5217 281.6103 13.11414741306308
ONEWEB-0102             
1 47258U 20100A   26196.87537965  .00000279  00000+0  73899-3 0  9999
2 47258  87.8963 344.9694 0002038 103.0815 257.0541 13.12442367268495
ONEWEB-0109             
1 47259U 20100B   26196.96008378 -.00000107  00000+0 -33261-3 0  9992
2 47259  87.8972 344.9388 0002023  97.5678 262.5681 13.12441829268335
ONEWEB-0110             
1 47260U 20100C   26196.91095804 -.00000244  00000+0 -71266-3 0  9998
2 47260  87.8973 344.9326 0001813 105.4889 254.6440 13.12444500268490
ONEWEB-0111             
1 47261U 20100D   26196.94145567  .00000385  00000+0  10340-2 0  9993
2 47261  87.8972 344.9452 0001776  98.0959 262.0371 13.12443089268333
ONEWEB-0114             
1 47262U 20100E   26196.89570153 -.00000384  00000+0 -11018-2 0  9995
2 47262  87.8975 344.9527 0002058  95.8937 264.2426 13.12442303268282
ONEWEB-0117             
1 47263U 20100F   26196.96347072 -.00000095  00000+0 -29971-3 0  9993
2 47263  87.8971 344.9290 0001853  97.0634 263.0706 13.12442044268309
ONEWEB-0118             
1 47264U 20100G   26196.92112223  .00000031  00000+0  49461-4 0  9993
2 47264  87.8970 344.9401 0001982  86.7263 273.4092 13.12443407268496
ONEWEB-0119             
1 47265U 20100H   26196.87030172  .00000351  00000+0  94025-3 0  9990
2 47265  87.8961 344.9644 0001852  95.0185 265.1155 13.12441812268461
ONEWEB-0120             
1 47266U 20100J   26196.89414747 -.00000339  00000+0 -97750-3 0  9993
2 47266  87.8961 344.9611 0002035  95.7423 264.3938 13.12441732268496
ONEWEB-0121             
1 47267U 20100K   26196.88215176 -.00000024  00000+0 -10331-3 0  9999
2 47267  87.8973 344.9523 0001567 100.8350 259.2955 13.12441366268404
ONEWEB-0122             
1 47268U 20100L   26196.87622508  .00000219  00000+0  57241-3 0  9995
2 47268  87.8974 344.9585 0001985  98.4846 261.6507 13.12440253268314
ONEWEB-0123             
1 47269U 20100M   26196.87199025  .00000336  00000+0  89868-3 0  9999
2 47269  87.8962 344.9630 0001858  92.9220 267.2122 13.12441925268454
ONEWEB-0124             
1 47270U 20100N   26196.93806446  .00000482  00000+0  13050-2 0  9991
2 47270  87.8960 344.9525 0001761  97.3304 262.8025 13.12443011268341
ONEWEB-0125             
1 47271U 20100P   26196.91603212 -.00000106  00000+0 -33055-3 0  9999
2 47271  87.8971 344.9437 0001604  90.4523 269.6789 13.12443823268409
ONEWEB-0126             
1 47272U 20100Q   26196.93652018  .00000416  00000+0  11203-2 0  9992
2 47272  87.8966 344.9536 0001982  94.4908 265.6447 13.12442854268471
ONEWEB-0127             
1 47273U 20100R   26196.90247795 -.00000425  00000+0 -12155-2 0  9991
2 47273  87.8961 344.9576 0001999  96.4280 263.7076 13.12442820268496
ONEWEB-0128             
1 47274U 20100S   26196.92450814  .00000148  00000+0  37494-3 0  9996
2 47274  87.8960 344.9671 0001809 106.2957 253.8370 13.12444195268510
ONEWEB-0129             
1 47275U 20100T   26196.90417413 -.00000421  00000+0 -12065-2 0  9995
2 47275  87.8971 344.9476 0002974  92.8317 267.3152 13.12442584268440
